{
    "links": {
        "self": "http://www.neowsapp.com/rest/v1/neo/54055032?api_key=iIulBulltgU6a56xZRHN4H3l9WmuAYTsLGpBGhQ2"
    },
    "id": "54055032",
    "neo_reference_id": "54055032",
    "name": "(2020 TA1)",
    "designation": "2020 TA1",
    "nasa_jpl_url": "http://ssd.jpl.nasa.gov/sbdb.cgi?sstr=54055032",
    "absolute_magnitude_h": 25.791,
    "estimated_diameter": {
        "kilometers": {
            "estimated_diameter_min": 0.0184652408,
            "estimated_diameter_max": 0.0412895338
        },
        "meters": {
            "estimated_diameter_min": 18.4652408455,
            "estimated_diameter_max": 41.2895337515
        },
        "miles": {
            "estimated_diameter_min": 0.0114737652,
            "estimated_diameter_max": 0.0256561189
        },
        "feet": {
            "estimated_diameter_min": 60.5815007757,
            "estimated_diameter_max": 135.4643539133
        }
    },
    "is_potentially_hazardous_asteroid": false,
    "close_approach_data": [
        {
            "close_approach_date": "2020-10-09",
            "close_approach_date_full": "2020-Oct-09 08:05",
            "epoch_date_close_approach": 1602230700000,
            "relative_velocity": {
                "kilometers_per_second": "7.0620979675",
                "kilometers_per_hour": "25423.5526828278",
                "miles_per_hour": "15797.2069433938"
            },
            "miss_distance": {
                "astronomical": "0.039749512",
                "lunar": "15.462560168",
                "kilometers": "5946442.32873944",
                "miles": "3694947.926066672"
            },
            "orbiting_body": "Earth"
        },
        {
            "close_approach_date": "2022-10-04",
            "close_approach_date_full": "2022-Oct-04 08:56",
            "epoch_date_close_approach": 1664873760000,
            "relative_velocity": {
                "kilometers_per_second": "7.6787479906",
                "kilometers_per_hour": "27643.4927660846",
                "miles_per_hour": "17176.5913801263"
            },
            "miss_distance": {
                "astronomical": "0.0636600213",
                "lunar": "24.7637482857",
                "kilometers": "9523403.590634631",
                "miles": "5917568.5899186678"
            },
            "orbiting_body": "Earth"
        }
    ],
    "orbital_data": {
        "orbit_id": "6",
        "orbit_determination_date": "2020-10-19 08:20:35",
        "first_observation_date": "2020-10-07",
        "last_observation_date": "2020-10-18",
        "data_arc_in_days": 11,
        "observations_used": 37,
        "orbit_uncertainty": "8",
        "minimum_orbit_intersection": ".0377943",
        "jupiter_tisserand_invariant": "4.301",
        "epoch_osculation": "2459132.5",
        "eccentricity": ".3535598893090854",
        "semi_major_axis": "1.58536328255293",
        "inclination": "9.534159680345521",
        "ascending_node_longitude": "194.1141441076208",
        "orbital_period": "729.107591685225",
        "perihelion_distance": "1.024842415858828",
        "perihelion_argument": "199.1236737754272",
        "aphelion_distance": "2.145884149247033",
        "perihelion_time": "2459146.696272385801",
        "mean_anomaly": "352.9905296321551",
        "mean_motion": ".4937542882634275",
        "equinox": "J2000",
        "orbit_class": {
            "orbit_class_type": "AMO",
            "orbit_class_description": "Near-Earth asteroid orbits similar to that of 1221 Amor",
            "orbit_class_range": "1.017 AU < q (perihelion) < 1.3 AU"
        }
    },
    "is_sentry_object": false
}